{
    "links": {
        "self": "http://www.neowsapp.com/rest/v1/neo/3602158?api_key=iIulBulltgU6a56xZRHN4H3l9WmuAYTsLGpBGhQ2"
    },
    "id": "3602158",
    "neo_reference_id": "3602158",
    "name": "(2012 GC)",
    "designation": "2012 GC",
    "nasa_jpl_url": "http://ssd.jpl.nasa.gov/sbdb.cgi?sstr=3602158",
    "absolute_magnitude_h": 24.5,
    "estimated_diameter": {
        "kilometers": {
            "estimated_diameter_min": 0.0334622374,
            "estimated_diameter_max": 0.0748238376
        },
        "meters": {
            "estimated_diameter_min": 33.4622374455,
            "estimated_diameter_max": 74.8238376074
        },
        "miles": {
            "estimated_diameter_min": 0.0207924639,
            "estimated_diameter_max": 0.0464933628
        },
        "feet": {
            "estimated_diameter_min": 109.7842471007,
            "estimated_diameter_max": 245.4850393757
        }
    },
    "is_potentially_hazardous_asteroid": false,
    "close_approach_data": [
        {
            "close_approach_date": "2009-03-30",
            "close_approach_date_full": "2009-Mar-30 04:11",
            "epoch_date_close_approach": 1238386260000,
            "relative_velocity": {
                "kilometers_per_second": "12.3586452081",
                "kilometers_per_hour": "44491.122749327",
                "miles_per_hour": "27645.0534661027"
            },
            "miss_distance": {
                "astronomical": "0.2471560161",
                "lunar": "96.1436902629",
                "kilometers": "36974013.566245707",
                "miles": "22974586.6843244766"
            },
            "orbiting_body": "Earth"
        },
        {
            "close_approach_date": "2012-04-05",
            "close_approach_date_full": "2012-Apr-05 01:18",
            "epoch_date_close_approach": 1333588680000,
            "relative_velocity": {
                "kilometers_per_second": "9.6888631929",
                "kilometers_per_hour": "34879.9074942771",
                "miles_per_hour": "21673.0180760968"
            },
            "miss_distance": {
                "astronomical": "0.0743795618",
                "lunar": "28.9336495402",
                "kilometers": "11127024.016813366",
                "miles": "6914012.1170458108"
            },
            "orbiting_body": "Earth"
        }
    ],
    "orbital_data": {
        "orbit_id": "5",
        "orbit_determination_date": "2019-07-16 06:14:57",
        "first_observation_date": "2012-04-01",
        "last_observation_date": "2012-04-02",
        "data_arc_in_days": 1,
        "observations_used": 20,
        "orbit_uncertainty": "8",
        "minimum_orbit_intersection": ".0720805",
        "jupiter_tisserand_invariant": "4.877",
        "epoch_osculation": "2456020.5",
        "eccentricity": ".1915321612597083",
        "semi_major_axis": "1.32209203344348",
        "inclination": "17.92202899855734",
        "ascending_node_longitude": "13.23301056596866",
        "orbital_period": "555.253058333233",
        "perihelion_distance": "1.068868888893808",
        "perihelion_argument": "192.1133551182247",
        "aphelion_distance": "1.575315177993153",
        "perihelion_time": "2456033.720354599676",
        "mean_anomaly": "351.4285431039858",
        "mean_motion": ".6483530249804539",
        "equinox": "J2000",
        "orbit_class": {
            "orbit_class_type": "AMO",
            "orbit_class_description": "Near-Earth asteroid orbits similar to that of 1221 Amor",
            "orbit_class_range": "1.017 AU < q (perihelion) < 1.3 AU"
        }
    },
    "is_sentry_object": false
}